[{"OBJECT_NAME":"METEOSAT-11 (MSG-4)","OBJECT_ID":"2015-034A","EPOCH":"2026-03-27T20:00:15.333120","MEAN_MOTION":1.00273512,"ECCENTRICITY":0.0001786,"INCLINATION":2.997,"RA_OF_ASC_NODE":71.5412,"ARG_OF_PERICENTER":284.7448,"MEAN_ANOMALY":138.255,"EPHEMERIS_TYPE":0,"CLASSIFICATION_TYPE":"U","NORAD_CAT_ID":40732,"ELEMENT_SET_NO":999,"REV_AT_EPOCH":640,"BSTAR":0,"MEAN_MOTION_DOT":4.5e-7,"MEAN_MOTION_DDOT":0},{"OBJECT_NAME":"ELEKTRO-L 2","OBJECT_ID":"2015-074A","EPOCH":"2026-03-27T18:10:48.329184","MEAN_MOTION":1.00271721,"ECCENTRICITY":0.0002892,"INCLINATION":6.4899,"RA_OF_ASC_NODE":71.5094,"ARG_OF_PERICENTER":244.5385,"MEAN_ANOMALY":127.3418,"EPHEMERIS_TYPE":0,"CLASSIFICATION_TYPE":"U","NORAD_CAT_ID":41105,"ELEMENT_SET_NO":999,"REV_AT_EPOCH":3769,"BSTAR":0,"MEAN_MOTION_DOT":-1.32e-6,"MEAN_MOTION_DDOT":0},{"OBJECT_NAME":"INSAT-3DR","OBJECT_ID":"2016-054A","EPOCH":"2026-03-27T20:18:43.560864","MEAN_MOTION":1.00271601,"ECCENTRICITY":0.0012796,"INCLINATION":0.1089,"RA_OF_ASC_NODE":87.7866,"ARG_OF_PERICENTER":194.8391,"MEAN_ANOMALY":281.3018,"EPHEMERIS_TYPE":0,"CLASSIFICATION_TYPE":"U","NORAD_CAT_ID":41752,"ELEMENT_SET_NO":999,"REV_AT_EPOCH":3500,"BSTAR":0,"MEAN_MOTION_DOT":-9.6e-7,"MEAN_MOTION_DDOT":0},{"OBJECT_NAME":"HIMAWARI-9","OBJECT_ID":"2016-064A","EPOCH":"2026-03-27T18:55:06.579840","MEAN_MOTION":1.00271025,"ECCENTRICITY":8.96e-5,"INCLINATION":0.025,"RA_OF_ASC_NODE":137.4119,"ARG_OF_PERICENTER":229.1464,"MEAN_ANOMALY":243.1867,"EPHEMERIS_TYPE":0,"CLASSIFICATION_TYPE":"U","NORAD_CAT_ID":41836,"ELEMENT_SET_NO":999,"REV_AT_EPOCH":3439,"BSTAR":0,"MEAN_MOTION_DOT":-2.94e-6,"MEAN_MOTION_DDOT":0},{"OBJECT_NAME":"GOES 16","OBJECT_ID":"2016-071A","EPOCH":"2026-03-27T16:02:23.144352","MEAN_MOTION":1.00271421,"ECCENTRICITY":0.0002228,"INCLINATION":0.1552,"RA_OF_ASC_NODE":85.5228,"ARG_OF_PERICENTER":231.6321,"MEAN_ANOMALY":3.8329,"EPHEMERIS_TYPE":0,"CLASSIFICATION_TYPE":"U","NORAD_CAT_ID":41866,"ELEMENT_SET_NO":999,"REV_AT_EPOCH":3428,"BSTAR":0,"MEAN_MOTION_DOT":-1.1e-6,"MEAN_MOTION_DDOT":0},{"OBJECT_NAME":"FENGYUN 4A","OBJECT_ID":"2016-077A","EPOCH":"2026-03-27T21:44:08.994624","MEAN_MOTION":1.0026658,"ECCENTRICITY":0.0007479,"INCLINATION":2.1162,"RA_OF_ASC_NODE":81.0893,"ARG_OF_PERICENTER":136.1624,"MEAN_ANOMALY":57.7976,"EPHEMERIS_TYPE":0,"CLASSIFICATION_TYPE":"U","NORAD_CAT_ID":41882,"ELEMENT_SET_NO":999,"REV_AT_EPOCH":3411,"BSTAR":0,"MEAN_MOTION_DOT":-3.75e-6,"MEAN_MOTION_DDOT":0},{"OBJECT_NAME":"CYGFM05","OBJECT_ID":"2016-078A","EPOCH":"2026-03-27T09:10:52.433184","MEAN_MOTION":15.53025663,"ECCENTRICITY":0.0005492,"INCLINATION":34.9579,"RA_OF_ASC_NODE":80.8355,"ARG_OF_PERICENTER":104.5335,"MEAN_ANOMALY":255.5997,"EPHEMERIS_TYPE":0,"CLASSIFICATION_TYPE":"U","NORAD_CAT_ID":41884,"ELEMENT_SET_NO":999,"REV_AT_EPOCH":51601,"BSTAR":0.00036267,"MEAN_MOTION_DOT":0.00023404,"MEAN_MOTION_DDOT":0},{"OBJECT_NAME":"CYGFM04","OBJECT_ID":"2016-078B","EPOCH":"2026-03-27T13:59:22.053696","MEAN_MOTION":15.56949502,"ECCENTRICITY":0.0005341,"INCLINATION":34.9341,"RA_OF_ASC_NODE":50.9095,"ARG_OF_PERICENTER":158.9756,"MEAN_ANOMALY":201.1188,"EPHEMERIS_TYPE":0,"CLASSIFICATION_TYPE":"U","NORAD_CAT_ID":41885,"ELEMENT_SET_NO":999,"REV_AT_EPOCH":51625,"BSTAR":0.00039689,"MEAN_MOTION_DOT":0.00029634,"MEAN_MOTION_DDOT":0},{"OBJECT_NAME":"CYGFM02","OBJECT_ID":"2016-078C","EPOCH":"2026-03-27T07:54:58.571712","MEAN_MOTION":15.59069147,"ECCENTRICITY":0.000618,"INCLINATION":34.9424,"RA_OF_ASC_NODE":49.098,"ARG_OF_PERICENTER":153.2348,"MEAN_ANOMALY":206.8697,"EPHEMERIS_TYPE":0,"CLASSIFICATION_TYPE":"U","NORAD_CAT_ID":41886,"ELEMENT_SET_NO":999,"REV_AT_EPOCH":51636,"BSTAR":0.00040514,"MEAN_MOTION_DOT":0.00032794,"MEAN_MOTION_DDOT":0},{"OBJECT_NAME":"CYGFM01","OBJECT_ID":"2016-078D","EPOCH":"2026-03-27T15:51:49.273344","MEAN_MOTION":15.53600289,"ECCENTRICITY":0.0005113,"INCLINATION":34.9409,"RA_OF_ASC_NODE":80.6719,"ARG_OF_PERICENTER":99.1358,"MEAN_ANOMALY":260.9943,"EPHEMERIS_TYPE":0,"CLASSIFICATION_TYPE":"U","NORAD_CAT_ID":41887,"ELEMENT_SET_NO":999,"REV_AT_EPOCH":51600,"BSTAR":0.00036762,"MEAN_MOTION_DOT":0.00024228,"MEAN_MOTION_DDOT":0},{"OBJECT_NAME":"CYGFM08","OBJECT_ID":"2016-078E","EPOCH":"2026-03-27T08:40:44.044032","MEAN_MOTION":15.55743316,"ECCENTRICITY":0.0006845,"INCLINATION":34.9445,"RA_OF_ASC_NODE":64.1594,"ARG_OF_PERICENTER":129.9945,"MEAN_ANOMALY":230.1381,"EPHEMERIS_TYPE":0,"CLASSIFICATION_TYPE":"U","NORAD_CAT_ID":41888,"ELEMENT_SET_NO":999,"REV_AT_EPOCH":51620,"BSTAR":0.0003804,"MEAN_MOTION_DOT":0.00027153,"MEAN_MOTION_DDOT":0},{"OBJECT_NAME":"CYGFM07","OBJECT_ID":"2016-078G","EPOCH":"2026-03-27T13:58:04.285056","MEAN_MOTION":15.55833819,"ECCENTRICITY":0.0005784,"INCLINATION":34.9463,"RA_OF_ASC_NODE":51.1051,"ARG_OF_PERICENTER":156.7059,"MEAN_ANOMALY":203.3928,"EPHEMERIS_TYPE":0,"CLASSIFICATION_TYPE":"U","NORAD_CAT_ID":41890,"ELEMENT_SET_NO":999,"REV_AT_EPOCH":51626,"BSTAR":0.0003924,"MEAN_MOTION_DOT":0.00028101,"MEAN_MOTION_DDOT":0},{"OBJECT_NAME":"CYGFM03","OBJECT_ID":"2016-078H","EPOCH":"2026-03-27T14:48:45.114048","MEAN_MOTION":15.55834721,"ECCENTRICITY":0.0004689,"INCLINATION":34.9417,"RA_OF_ASC_NODE":52.8405,"ARG_OF_PERICENTER":143.6866,"MEAN_ANOMALY":216.4177,"EPHEMERIS_TYPE":0,"CLASSIFICATION_TYPE":"U","NORAD_CAT_ID":41891,"ELEMENT_SET_NO":999,"REV_AT_EPOCH":51624,"BSTAR":0.00039837,"MEAN_MOTION_DOT":0.00028525,"MEAN_MOTION_DDOT":0},{"OBJECT_NAME":"FENGYUN 3D","OBJECT_ID":"2017-072A","EPOCH":"2026-03-27T21:20:44.339712","MEAN_MOTION":14.19720644,"ECCENTRICITY":6.39e-5,"INCLINATION":99.0062,"RA_OF_ASC_NODE":59.8743,"ARG_OF_PERICENTER":318.5207,"MEAN_ANOMALY":41.592,"EPHEMERIS_TYPE":0,"CLASSIFICATION_TYPE":"U","NORAD_CAT_ID":43010,"ELEMENT_SET_NO":999,"REV_AT_EPOCH":43345,"BSTAR":6.0026e-5,"MEAN_MOTION_DOT":8.1e-7,"MEAN_MOTION_DDOT":0},{"OBJECT_NAME":"NOAA 20 (JPSS-1)","OBJECT_ID":"2017-073A","EPOCH":"2026-03-27T19:15:00.353088","MEAN_MOTION":14.19540671,"ECCENTRICITY":0.0001866,"INCLINATION":98.7712,"RA_OF_ASC_NODE":27.0114,"ARG_OF_PERICENTER":113.2704,"MEAN_ANOMALY":246.8668,"EPHEMERIS_TYPE":0,"CLASSIFICATION_TYPE":"U","NORAD_CAT_ID":43013,"ELEMENT_SET_NO":999,"REV_AT_EPOCH":43292,"BSTAR":5.9509e-5,"MEAN_MOTION_DOT":8.1e-7,"MEAN_MOTION_DDOT":0},{"OBJECT_NAME":"GOES 17","OBJECT_ID":"2018-022A","EPOCH":"2026-03-27T11:48:38.577024","MEAN_MOTION":1.00271273,"ECCENTRICITY":0.0001575,"INCLINATION":0.7281,"RA_OF_ASC_NODE":86.9627,"ARG_OF_PERICENTER":234.051,"MEAN_ANOMALY":311.5631,"EPHEMERIS_TYPE":0,"CLASSIFICATION_TYPE":"U","NORAD_CAT_ID":43226,"ELEMENT_SET_NO":999,"REV_AT_EPOCH":2960,"BSTAR":0,"MEAN_MOTION_DOT":-2.01e-6,"MEAN_MOTION_DDOT":0},{"OBJECT_NAME":"FENGYUN 2H","OBJECT_ID":"2018-050A","EPOCH":"2026-03-27T20:20:13.417728","MEAN_MOTION":1.00270339,"ECCENTRICITY":0.0001725,"INCLINATION":2.8208,"RA_OF_ASC_NODE":80.0368,"ARG_OF_PERICENTER":172.936,"MEAN_ANOMALY":316.4207,"EPHEMERIS_TYPE":0,"CLASSIFICATION_TYPE":"U","NORAD_CAT_ID":43491,"ELEMENT_SET_NO":999,"REV_AT_EPOCH":2862,"BSTAR":0,"MEAN_MOTION_DOT":-1.44e-6,"MEAN_MOTION_DDOT":0}]
