METEOSAT-11 (MSG-4)     
1 40732U 15034A   26086.83351080  .00000045  00000+0  00000+0 0  9996
2 40732   2.9970  71.5412 0001786 284.7448 138.2550  1.00273512  6409
ELEKTRO-L 2             
1 41105U 15074A   26086.75750381 -.00000132  00000+0  00000+0 0  9991
2 41105   6.4899  71.5094 0002892 244.5385 127.3418  1.00271721 37699
INSAT-3DR               
1 41752U 16054A   26086.84633751 -.00000096  00000+0  00000+0 0  9998
2 41752   0.1089  87.7866 0012796 194.8391 281.3018  1.00271601 35000
HIMAWARI-9              
1 41836U 16064A   26086.78827060 -.00000294  00000+0  00000+0 0  9993
2 41836   0.0250 137.4119 0000896 229.1464 243.1867  1.00271025 34396
GOES 16                 
1 41866U 16071A   26086.66832343 -.00000110  00000+0  00000+0 0  9998
2 41866   0.1552  85.5228 0002228 231.6321   3.8329  1.00271421 34282
FENGYUN 4A              
1 41882U 16077A   26086.90565966 -.00000375  00000+0  00000+0 0  9996
2 41882   2.1162  81.0893 0007479 136.1624  57.7976  1.00266580 34114
CYGFM05                 
1 41884U 16078A   26086.38255131  .00023404  00000+0  36267-3 0  9996
2 41884  34.9579  80.8355 0005492 104.5335 255.5997 15.53025663516015
CYGFM04                 
1 41885U 16078B   26086.58289414  .00029634  00000+0  39689-3 0  9992
2 41885  34.9341  50.9095 0005341 158.9756 201.1188 15.56949502516250
CYGFM02                 
1 41886U 16078C   26086.32984458  .00032794  00000+0  40514-3 0  9995
2 41886  34.9424  49.0980 0006180 153.2348 206.8697 15.59069147516362
CYGFM01                 
1 41887U 16078D   26086.66098696  .00024228  00000+0  36762-3 0  9996
2 41887  34.9409  80.6719 0005113  99.1358 260.9943 15.53600289516009
CYGFM08                 
1 41888U 16078E   26086.36162088  .00027153  00000+0  38040-3 0  9992
2 41888  34.9445  64.1594 0006845 129.9945 230.1381 15.55743316516203
CYGFM07                 
1 41890U 16078G   26086.58199404  .00028101  00000+0  39240-3 0  9998
2 41890  34.9463  51.1051 0005784 156.7059 203.3928 15.55833819516268
CYGFM03                 
1 41891U 16078H   26086.61718882  .00028525  00000+0  39837-3 0  9992
2 41891  34.9417  52.8405 0004689 143.6866 216.4177 15.55834721516245
FENGYUN 3D              
1 43010U 17072A   26086.88940208  .00000081  00000+0  60026-4 0  9992
2 43010  99.0062  59.8743 0000639 318.5207  41.5920 14.19720644433454
NOAA 20 (JPSS-1)        
1 43013U 17073A   26086.80208742  .00000081  00000+0  59509-4 0  9992
2 43013  98.7712  27.0114 0001866 113.2704 246.8668 14.19540671432929
GOES 17                 
1 43226U 18022A   26086.49211316 -.00000201  00000+0  00000+0 0  9991
2 43226   0.7281  86.9627 0001575 234.0510 311.5631  1.00271273 29608
FENGYUN 2H              
1 43491U 18050A   26086.84737752 -.00000144  00000+0  00000+0 0  9998
2 43491   2.8208  80.0368 0001725 172.9360 316.4207  1.00270339 28627
